OBJECT_NAME,OBJECT_ID,EPOCH,MEAN_MOTION,ECCENTRICITY,INCLINATION,RA_OF_ASC_NODE,ARG_OF_PERICENTER,MEAN_ANOMALY,EPHEMERIS_TYPE,CLASSIFICATION_TYPE,NORAD_CAT_ID,ELEMENT_SET_NO,REV_AT_EPOCH,BSTAR,MEAN_MOTION_DOT,MEAN_MOTION_DDOT
STARLINK-33830,2025-076U,2026-07-02T23:41:03.139296,15.27575954,.00015422,42.9996,30.5484,269.3276,90.7399,0,U,63587,999,6946,.88099295E-3,.24057E-3,0
STARLINK-33651,2025-076V,2026-07-03T23:15:15.826752,15.27628943,.00015279,43.0006,25.0204,253.3252,106.7432,0,U,63588,999,6961,.1705812E-2,.47049E-3,0
STARLINK-33788,2025-076W,2026-07-04T05:55:55.713504,15.27615749,.00013726,43.0002,23.6750,268.8224,91.2470,0,U,63589,999,6965,.12208909E-2,.33524E-3,0
STARLINK-33805,2025-076X,2026-07-04T06:10:44.247648,15.27628661,.00014636,43.0014,23.7388,278.5535,81.5151,0,U,63590,999,6965,.1260504E-2,.34639E-3,0
STARLINK-33702,2025-076Y,2026-07-03T13:22:33.707712,15.27592546,.00008538,43.0013,27.0907,267.5150,92.5604,0,U,63591,999,6955,.10370311E-2,.28395E-3,0
STARLINK-33666,2025-076Z,2026-07-04T05:48:31.345344,15.27627827,.00017093,42.9977,23.6312,262.4873,97.5785,0,U,63592,999,6965,.96579472E-3,.26449E-3,0
STARLINK-33723,2025-076AA,2026-07-03T19:48:26.198208,15.27591393,.00013873,43.0032,25.6608,262.9585,97.1109,0,U,63593,999,6959,.83590134E-3,.22819E-3,0
STARLINK-33791,2025-076AB,2026-07-04T05:52:13.518624,15.27601008,.00011829,42.9995,23.6481,279.8588,80.2130,0,U,63594,999,6965,.90072237E-3,.24622E-3,0
STARLINK-33831,2025-076AC,2026-07-03T23:02:16.677600,15.27601094,.00017644,43.0020,24.8880,273.5500,86.5150,0,U,63595,999,6961,.83432264E-3,.22783E-3,0
SHIYAN-27 OBJECT A,2025-078A,2026-07-04T06:34:51.267936,13.57252183,.00010444,99.6904,192.2455,82.1234,278.0023,0,U,63599,999,5985,.67723021E-4,.4E-7,0
SHIYAN-27 OBJECT B,2025-078B,2026-07-04T07:28:12.545184,13.57248861,.00009061,99.6910,192.2587,89.0441,271.0801,0,U,63600,999,5985,.65026592E-4,.2E-7,0
SHIYAN-27 OBJECT C,2025-078C,2026-07-04T08:03:32.478048,13.57247762,.00011948,99.6912,192.3733,88.3432,271.7843,0,U,63601,999,5986,.60458778E-4,-.1E-7,0
SHIYAN-27 OBJECT D,2025-078D,2026-07-04T07:45:53.238240,13.57250664,.00010668,99.6932,192.3126,84.1645,275.9615,0,U,63602,999,5985,.64603132E-4,.2E-7,0
SHIYAN-27 OBJECT E,2025-078E,2026-07-04T07:10:28.572384,13.57243709,.00010362,99.6892,192.1911,83.3770,276.7486,0,U,63603,999,5985,.78315213E-4,.12E-6,0
SHIYAN-27 OBJECT F,2025-078F,2026-07-04T06:52:52.468032,13.57243355,.00011569,99.6900,192.2437,82.3222,277.8048,0,U,63604,999,5985,.64633246E-4,.2E-7,0
KORSAT-3,2025-081A,2026-07-04T06:27:32.445792,14.99027201,.00103962,45.4102,247.3224,296.2400,63.7409,0,U,63630,999,6574,.55943529E-3,.6666E-4,0
TOMORROW-S7,2025-081B,2026-07-04T07:21:56.496096,14.99669829,.00023682,45.3924,246.9377,323.5340,36.5377,0,U,63631,999,6574,.14229945E-3,.1551E-4,0
STARLINK-33879,2025-083A,2026-07-04T01:59:10.356864,15.27577560,.00015792,43.0016,68.2322,272.2890,87.7781,0,U,63634,999,6786,.13290898E-2,.3649E-3,0
STARLINK-33854,2025-083B,2026-07-04T00:58:06.077568,15.27611901,.00021279,42.9985,67.9146,279.4577,80.6034,0,U,63635,999,6786,.12288085E-2,.33741E-3,0
STARLINK-33864,2025-083C,2026-07-04T02:04:42.784320,15.27601650,.0001285,43.0003,68.2593,275.3633,84.7072,0,U,63636,999,6789,.81724536E-3,.2231E-3,0
STARLINK-33832,2025-083D,2026-07-04T02:21:09.403200,15.27597679,.00013,42.9997,67.4878,265.1038,94.9665,0,U,63637,999,6787,.74929215E-3,.20425E-3,0
STARLINK-33856,2025-083E,2026-07-04T01:01:47.984736,15.27613882,.00014059,43.0009,67.9308,283.6480,76.4215,0,U,63638,999,6786,.13456145E-2,.36991E-3,0
STARLINK-33876,2025-083F,2026-07-04T01:24:00.501696,15.27600534,.00016294,43.0025,68.0387,251.3903,108.6772,0,U,63639,999,6786,.96148005E-3,.26307E-3,0
STARLINK-33859,2025-083G,2026-07-04T02:02:51.679104,15.27607737,.0001162,43.0009,68.2545,257.8622,102.2100,0,U,63640,999,6786,.95489754E-3,.2613E-3,0
STARLINK-33826,2025-083H,2026-07-04T01:05:30.017184,15.27604844,.00014677,43.0014,67.9566,282.4885,77.5802,0,U,63641,999,6786,.11449062E-2,.31401E-3,0
STARLINK-33836,2025-083J,2026-07-04T01:49:54.545664,15.27612471,.00017665,43.0031,68.1873,269.4957,90.5692,0,U,63642,999,6786,.12117097E-2,.33265E-3,0
STARLINK-33558,2025-083K,2026-07-04T00:52:32.920032,15.27615340,.00016231,42.9986,67.8836,269.2421,90.8245,0,U,63643,999,6786,.11590807E-2,.31806E-3,0
STARLINK-33852,2025-083L,2026-07-04T01:48:03.543264,15.27617654,.0001359,43.0034,68.1759,268.7541,91.3155,0,U,63644,999,6789,.12398734E-2,.34053E-3,0
STARLINK-33835,2025-083M,2026-07-03T23:55:23.951136,15.27610809,.00013543,43.0027,68.4384,283.2137,76.8563,0,U,63645,999,6788,.11402598E-2,.31278E-3,0
STARLINK-33661,2025-083N,2026-07-04T01:09:11.907072,15.27611786,.00015676,43.0018,67.9658,281.1361,78.9315,0,U,63646,999,6789,.13066847E-2,.35905E-3,0
