STARLINK-33830          
1 63587U 25076U   26183.98684189  .00024057  00000+0  88099-3 0  9996
2 63587  42.9996  30.5484 0001542 269.3276  90.7399 15.27575954 69463
STARLINK-33651          
1 63588U 25076V   26184.96893318  .00047049  00000+0  17058-2 0  9994
2 63588  43.0006  25.0204 0001527 253.3252 106.7432 15.27628943 69617
STARLINK-33788          
1 63589U 25076W   26185.24717261  .00033524  00000+0  12209-2 0  9995
2 63589  43.0002  23.6750 0001372 268.8224  91.2470 15.27615749 69656
STARLINK-33805          
1 63590U 25076X   26185.25745657  .00034639  00000+0  12605-2 0  9996
2 63590  43.0014  23.7388 0001463 278.5535  81.5151 15.27628661 69658
STARLINK-33702          
1 63591U 25076Y   26184.55733458  .00028395  00000+0  10370-2 0  9994
2 63591  43.0013  27.0907 0000853 267.5150  92.5604 15.27592546 69551
STARLINK-33666          
1 63592U 25076Z   26185.24202946  .00026449  00000+0  96579-3 0  9999
2 63592  42.9977  23.6312 0001709 262.4873  97.5785 15.27627827 69655
STARLINK-33723          
1 63593U 25076AA  26184.82530322  .00022819  00000+0  83590-3 0  9991
2 63593  43.0032  25.6608 0001387 262.9585  97.1109 15.27591393 69594
STARLINK-33791          
1 63594U 25076AB  26185.24460091  .00024622  00000+0  90072-3 0  9991
2 63594  42.9995  23.6481 0001182 279.8588  80.2130 15.27601008 69650
STARLINK-33831          
1 63595U 25076AC  26184.95991525  .00022783  00000+0  83432-3 0  9998
2 63595  43.0020  24.8880 0001764 273.5500  86.5150 15.27601094 69611
SHIYAN-27 OBJECT A      
1 63599U 25078A   26185.27420449  .00000004  00000+0  67723-4 0  9990
2 63599  99.6904 192.2455 0001044  82.1234 278.0023 13.57252183 59854
SHIYAN-27 OBJECT B      
1 63600U 25078B   26185.31125631  .00000002  00000+0  65027-4 0  9996
2 63600  99.6910 192.2587 0000906  89.0441 271.0801 13.57248861 59857
SHIYAN-27 OBJECT C      
1 63601U 25078C   26185.33579257 -.00000001  00000+0  60459-4 0  9990
2 63601  99.6912 192.3733 0001194  88.3432 271.7843 13.57247762 59869
SHIYAN-27 OBJECT D      
1 63602U 25078D   26185.32353285  .00000002  00000+0  64603-4 0  9996
2 63602  99.6932 192.3126 0001066  84.1645 275.9615 13.57250664 59853
SHIYAN-27 OBJECT E      
1 63603U 25078E   26185.29894181  .00000012  00000+0  78315-4 0  9994
2 63603  99.6892 192.1911 0001036  83.3770 276.7486 13.57243709 59853
SHIYAN-27 OBJECT F      
1 63604U 25078F   26185.28671838  .00000002  00000+0  64633-4 0  9993
2 63604  99.6900 192.2437 0001156  82.3222 277.8048 13.57243355 59855
KORSAT-3                
1 63630U 25081A   26185.26912553  .00006666  00000+0  55944-3 0  9992
2 63630  45.4102 247.3224 0010396 296.2400  63.7409 14.99027201 65748
TOMORROW-S7             
1 63631U 25081B   26185.30690389  .00001551  00000+0  14230-3 0  9999
2 63631  45.3924 246.9377 0002368 323.5340  36.5377 14.99669829 65741
STARLINK-33879          
1 63634U 25083A   26185.08275876  .00036490  00000+0  13291-2 0  9994
2 63634  43.0016  68.2322 0001579 272.2890  87.7781 15.27577560 67863
STARLINK-33854          
1 63635U 25083B   26185.04034812  .00033741  00000+0  12288-2 0  9995
2 63635  42.9985  67.9146 0002127 279.4577  80.6034 15.27611901 67869
STARLINK-33864          
1 63636U 25083C   26185.08660630  .00022310  00000+0  81725-3 0  9996
2 63636  43.0003  68.2593 0001285 275.3633  84.7072 15.27601650 67895
STARLINK-33832          
1 63637U 25083D   26185.09802550  .00020425  00000+0  74929-3 0  9990
2 63637  42.9997  67.4878 0001300 265.1038  94.9665 15.27597679 67871
STARLINK-33856          
1 63638U 25083E   26185.04291649  .00036991  00000+0  13456-2 0  9999
2 63638  43.0009  67.9308 0001405 283.6480  76.4215 15.27613882 67863
STARLINK-33876          
1 63639U 25083F   26185.05833914  .00026307  00000+0  96148-3 0  9998
2 63639  43.0025  68.0387 0001629 251.3903 108.6772 15.27600534 67867
STARLINK-33859          
1 63640U 25083G   26185.08532036  .00026130  00000+0  95490-3 0  9997
2 63640  43.0009  68.2545 0001162 257.8622 102.2100 15.27607737 67867
STARLINK-33826          
1 63641U 25083H   26185.04548631  .00031401  00000+0  11449-2 0  9990
2 63641  43.0014  67.9566 0001467 282.4885  77.5802 15.27604844 67865
STARLINK-33836          
1 63642U 25083J   26185.07632576  .00033265  00000+0  12117-2 0  9999
2 63642  43.0031  68.1873 0001766 269.4957  90.5692 15.27612471 67863
STARLINK-33558          
1 63643U 25083K   26185.03649213  .00031806  00000+0  11591-2 0  9996
2 63643  42.9986  67.8836 0001623 269.2421  90.8245 15.27615340 67867
STARLINK-33852          
1 63644U 25083L   26185.07504101  .00034053  00000+0  12399-2 0  9991
2 63644  43.0034  68.1759 0001359 268.7541  91.3155 15.27617654 67894
STARLINK-33835          
1 63645U 25083M   26184.99680499  .00031278  00000+0  11403-2 0  9998
2 63645  43.0027  68.4384 0001354 283.2137  76.8563 15.27610809 67887
STARLINK-33661          
1 63646U 25083N   26185.04805448  .00035905  00000+0  13067-2 0  9998
2 63646  43.0018  67.9658 0001567 281.1361  78.9315 15.27611786 67892
